TDRS 11                 
1 39070U 13004A   26061.69622776  .00000065  00000+0  00000+0 0  9996
2 39070   3.3648  29.3196 0003910 349.7595 217.6565  1.00275964 45623
TDRS 12                 
1 39504U 14004A   26061.72257455 -.00000284  00000+0  00000+0 0  9995
2 39504   3.8742  17.2098 0003987 266.9061  95.6183  1.00270656 43210
GPM-CORE                
1 39574U 14009C   26061.78252946  .00014689  00000+0  31828-3 0  9992
2 39574  64.9741 304.6229 0012444 264.2311  95.7411 15.44569598681379
MMS 1                   
1 40482U 15011A   26061.91668981 -.00002075  00000+0  00000+0 0  9992
2 40482  70.7048 350.2381 8414265 165.1728 259.0083  0.28294458  1323
MMS 2                   
1 40483U 15011B   26061.91668981 -.00002075  00000+0  00000+0 0  9993
2 40483  70.7044 350.2400 8415010 165.1840 258.9690  0.28299808  1322
MMS 3                   
1 40484U 15011C   26061.91668981 -.00002075  00000+0  00000+0 0  9994
2 40484  70.7067 350.2447 8414296 165.1781 258.9779  0.28299777  1321
MMS 4                   
1 40485U 15011D   26061.91668981 -.00002075  00000+0  00000+0 0  9995
2 40485  70.7056 350.2400 8413780 165.1804 258.9861  0.28294451  1328
TDRS 13                 
1 42915U 17047A   26061.72846792 -.00000114  00000+0  00000+0 0  9995
2 42915   3.4294   0.0218 0010050  99.5766 311.6727  1.00272006 31283
NOAA 20 (JPSS-1)        
1 43013U 17073A   26061.77987135  .00000086  00000+0  61486-4 0  9993
2 43013  98.7684   2.2361 0000893 145.9894 214.1340 14.19533889429370
